ONEWEB-0474             
1 51654U 22012AJ  26186.49525845  .00000473  00000+0  13182-2 0  9993
2 51654  87.8826  32.6144 0001530  87.5817 272.5485 13.10371413211693
ONEWEB-0475             
1 51655U 22012AK  26186.44701555  .00000021  00000+0  21331-4 0  9999
2 51655  87.9136   2.2396 0001205  98.4564 261.6704 13.17647503216095
ONEWEB-0490             
1 54113U 22138A   26186.33061746  .00000111  00000+0  24426-3 0  9996
2 54113  87.9190 301.3543 0001922 106.5487 253.5857 13.19726283179222
ONEWEB-0492             
1 54114U 22138B   26186.28006391  .00000141  00000+0  31917-3 0  9992
2 54114  87.9182 301.3647 0002118 106.3652 253.7714 13.19726575179227
ONEWEB-0495             
1 54115U 22138C   26186.33377723  .00000093  00000+0  20086-3 0  9990
2 54115  87.9184 301.3564 0001858 120.5884 239.5433 13.19726307179215
ONEWEB-0497             
1 54116U 22138D   26186.27059794  .00000133  00000+0  29955-3 0  9998
2 54116  87.9190 301.3627 0001951 103.4250 256.7100 13.19726025179190
ONEWEB-0499             
1 54117U 22138E   26186.32980883  .00000114  00000+0  25150-3 0  9999
2 54117  87.9183 301.3583 0001777 106.3857 253.7471 13.19724020179219
ONEWEB-0500             
1 54118U 22138F   26186.33220083  .00000116  00000+0  25829-3 0  9995
2 54118  87.9191 301.3533 0002058 100.3912 259.7453 13.19726000179220
ONEWEB-0501             
1 54119U 22138G   26186.28639981  .00000107  00000+0  23427-3 0  9993
2 54119  87.9191 301.3624 0001817 113.4363 246.6961 13.19725103179197
ONEWEB-0502             
1 54120U 22138H   26186.34799364  .00000097  00000+0  20923-3 0  9990
2 54120  87.9194 301.3393 0001729 105.4035 254.7288 13.19725308179227
ONEWEB-0503             
1 54121U 22138J   26186.33693589  .00000111  00000+0  24417-3 0  9991
2 54121  87.9196 301.3476 0001790  94.4810 265.6527 13.19726662179218
ONEWEB-0504             
1 54122U 22138K   26186.32430075  .00000086  00000+0  18238-3 0  9995
2 54122  87.9193 301.3545 0001739 104.9082 255.2243 13.19726465179226
ONEWEB-0505             
1 54123U 22138L   26186.32112729  .00000103  00000+0  22457-3 0  9997
2 54123  87.9191 301.3559 0001719 113.5119 246.6194 13.19727854179205
ONEWEB-0506             
1 54124U 22138M   26186.29587366  .00000078  00000+0  16276-3 0  9990
2 54124  87.9191 301.3584 0001812 110.2536 249.8792 13.19724501179198
ONEWEB-0507             
1 54125U 22138N   26186.31640099  .00000043  00000+0  75852-4 0  9995
2 54125  87.9184 301.3649 0001910 107.0670 253.0672 13.19726285179246
ONEWEB-0508             
1 54126U 22138P   26186.31324265  .00000082  00000+0  17346-3 0  9996
2 54126  87.9183 301.3648 0002014 114.3350 245.7993 13.19726140179229
ONEWEB-0509             
1 54127U 22138Q   26186.28795174  .00000110  00000+0  24232-3 0  9998
2 54127  87.9194 301.3614 0001885 105.5592 254.5749 13.19723794179195
ONEWEB-0510             
1 54128U 22138R   26186.23787005  .00000016  00000+0  70423-5 0  9998
2 54128  87.9193 270.8391 0002198  88.2057 271.9328 13.20773765181664
ONEWEB-0511             
1 54129U 22138S   26186.28479446  .00000104  00000+0  22726-3 0  9990
2 54129  87.9189 301.3639 0001640  99.0452 261.0866 13.19726793179228
ONEWEB-0512             
1 54130U 22138T   26186.27690594  .00000126  00000+0  28301-3 0  9999
2 54130  87.9183 301.3694 0001684 107.8398 252.2918 13.19725953179193
ONEWEB-0513             
1 54131U 22138U   26186.27508204  .00000106  00000+0  22971-3 0  9991
2 54131  87.9190 301.3117 0001130 119.4440 240.6806 13.20269287179108
ONEWEB-0514             
1 54132U 22138V   26186.29270554  .00000097  00000+0  20925-3 0  9994
2 54132  87.9191 301.3618 0001964  96.5762 263.5595 13.19725357179217
ONEWEB-0515             
1 54133U 22138W   26186.30018669  .00000054  00000+0  10037-3 0  9990
2 54133  87.9198 270.8221 0002887  95.2191 264.9272 13.20771388181691
ONEWEB-0516             
1 54134U 22138X   26186.34323798  .00000103  00000+0  22534-3 0  9997
2 54134  87.9184 301.3562 0002022 104.6954 255.4403 13.19726522179223
ONEWEB-0517             
1 54135U 22138Y   26186.32271846  .00000093  00000+0  20086-3 0  9990
2 54135  87.9192 301.3542 0001733  93.0714 267.0617 13.19726207179220
ONEWEB-0518             
1 54136U 22138Z   26186.34165319 -.00000187  00000+0 -49962-3 0  9990
2 54136  87.9184 301.3588 0002106 104.5576 255.5791 13.19725118179226
ONEWEB-0519             
1 54137U 22138AA  26186.29111344  .00000060  00000+0  11830-3 0  9995
2 54137  87.9191 301.3615 0001818  96.0117 264.1223 13.19727187179225
ONEWEB-0520             
1 54138U 22138AB  26186.32587991  .00000081  00000+0  16887-3 0  9995
2 54138  87.9193 301.3547 0001877 108.8576 251.2760 13.19726533179214
ONEWEB-0521             
1 54139U 22138AC  26186.28322146  .00000084  00000+0  17755-3 0  9998
2 54139  87.9194 301.3519 0001835  94.1555 265.9788 13.19726527179151
ONEWEB-0522             
1 54140U 22138AD  26186.33851726  .00000111  00000+0  24411-3 0  9995
2 54140  87.9195 301.3437 0001869 104.4121 255.7219 13.19726196179208
