OBJECT_NAME,OBJECT_ID,EPOCH,MEAN_MOTION,ECCENTRICITY,INCLINATION,RA_OF_ASC_NODE,ARG_OF_PERICENTER,MEAN_ANOMALY,EPHEMERIS_TYPE,CLASSIFICATION_TYPE,NORAD_CAT_ID,ELEMENT_SET_NO,REV_AT_EPOCH,BSTAR,MEAN_MOTION_DOT,MEAN_MOTION_DDOT
ONEWEB-0474,2022-012AJ,2026-07-05T11:53:10.330080,13.10371413,.00015303,87.8826,32.6144,87.5817,272.5485,0,U,51654,999,21169,.13181532E-2,.473E-5,0
ONEWEB-0475,2022-012AK,2026-07-05T10:43:42.143520,13.17647503,.00012051,87.9136,2.2396,98.4564,261.6704,0,U,51655,999,21609,.21330775E-4,.21E-6,0
ONEWEB-0490,2022-138A,2026-07-05T07:56:05.348544,13.19726283,.00019225,87.9190,301.3543,106.5487,253.5857,0,U,54113,999,17922,.24425518E-3,.111E-5,0
ONEWEB-0492,2022-138B,2026-07-05T06:43:17.521824,13.19726575,.00021183,87.9182,301.3647,106.3652,253.7714,0,U,54114,999,17922,.31916742E-3,.141E-5,0
ONEWEB-0495,2022-138C,2026-07-05T08:00:38.352672,13.19726307,.00018584,87.9184,301.3564,120.5884,239.5433,0,U,54115,999,17921,.20086315E-3,.93E-6,0
ONEWEB-0497,2022-138D,2026-07-05T06:29:39.662016,13.19726025,.00019513,87.9190,301.3627,103.4250,256.7100,0,U,54116,999,17919,.29954904E-3,.133E-5,0
ONEWEB-0499,2022-138E,2026-07-05T07:54:55.482912,13.19724020,.00017779,87.9183,301.3583,106.3857,253.7471,0,U,54117,999,17921,.25149675E-3,.114E-5,0
ONEWEB-0500,2022-138F,2026-07-05T07:58:22.151712,13.19726000,.00020588,87.9191,301.3533,100.3912,259.7453,0,U,54118,999,17922,.25829022E-3,.116E-5,0
ONEWEB-0501,2022-138G,2026-07-05T06:52:24.943584,13.19725103,.00018173,87.9191,301.3624,113.4363,246.6961,0,U,54119,999,17919,.23426671E-3,.107E-5,0
ONEWEB-0502,2022-138H,2026-07-05T08:21:06.650496,13.19725308,.00017293,87.9194,301.3393,105.4035,254.7288,0,U,54120,999,17922,.20923274E-3,.97E-6,0
ONEWEB-0503,2022-138J,2026-07-05T08:05:11.260896,13.19726662,.00017905,87.9196,301.3476,94.4810,265.6527,0,U,54121,999,17921,.24417386E-3,.111E-5,0
ONEWEB-0504,2022-138K,2026-07-05T07:46:59.584800,13.19726465,.00017391,87.9193,301.3545,104.9082,255.2243,0,U,54122,999,17922,.18237701E-3,.86E-6,0
ONEWEB-0505,2022-138L,2026-07-05T07:42:25.397856,13.19727854,.00017197,87.9191,301.3559,113.5119,246.6194,0,U,54123,999,17920,.2245725E-3,.103E-5,0
ONEWEB-0506,2022-138M,2026-07-05T07:06:03.484224,13.19724501,.00018124,87.9191,301.3584,110.2536,249.8792,0,U,54124,999,17919,.16275505E-3,.78E-6,0
ONEWEB-0507,2022-138N,2026-07-05T07:35:37.045536,13.19726285,.00019108,87.9184,301.3649,107.0670,253.0672,0,U,54125,999,17924,.75852282E-4,.43E-6,0
ONEWEB-0508,2022-138P,2026-07-05T07:31:04.164960,13.19726140,.00020141,87.9183,301.3648,114.3350,245.7993,0,U,54126,999,17922,.17346265E-3,.82E-6,0
ONEWEB-0509,2022-138Q,2026-07-05T06:54:39.030336,13.19723794,.00018855,87.9194,301.3614,105.5592,254.5749,0,U,54127,999,17919,.24232085E-3,.11E-5,0
ONEWEB-0510,2022-138R,2026-07-05T05:42:31.972320,13.20773765,.00021988,87.9193,270.8391,88.2057,271.9328,0,U,54128,999,18166,.7042315E-5,.16E-6,0
ONEWEB-0511,2022-138S,2026-07-05T06:50:06.241344,13.19726793,.00016408,87.9189,301.3639,99.0452,261.0866,0,U,54129,999,17922,.22725989E-3,.104E-5,0
ONEWEB-0512,2022-138T,2026-07-05T06:38:44.673216,13.19725953,.00016842,87.9183,301.3694,107.8398,252.2918,0,U,54130,999,17919,.28301447E-3,.126E-5,0
ONEWEB-0513,2022-138U,2026-07-05T06:36:07.088256,13.20269287,.000113,87.9190,301.3117,119.4440,240.6806,0,U,54131,999,17910,.22970891E-3,.106E-5,0
ONEWEB-0514,2022-138V,2026-07-05T07:01:29.758656,13.19725357,.0001964,87.9191,301.3618,96.5762,263.5595,0,U,54132,999,17921,.20924842E-3,.97E-6,0
ONEWEB-0515,2022-138W,2026-07-05T07:12:16.130016,13.20771388,.00028873,87.9198,270.8221,95.2191,264.9272,0,U,54133,999,18169,.10037258E-3,.54E-6,0
ONEWEB-0516,2022-138X,2026-07-05T08:14:15.761472,13.19726522,.00020229,87.9184,301.3562,104.6954,255.4403,0,U,54134,999,17922,.22533619E-3,.103E-5,0
ONEWEB-0517,2022-138Y,2026-07-05T07:44:42.874944,13.19726207,.00017337,87.9192,301.3542,93.0714,267.0617,0,U,54135,999,17922,.20085806E-3,.93E-6,0
ONEWEB-0518,2022-138Z,2026-07-05T08:11:58.835616,13.19725118,.00021066,87.9184,301.3588,104.5576,255.5791,0,U,54136,999,17922,-.4996227E-3,-.187E-5,0
ONEWEB-0519,2022-138AA,2026-07-05T06:59:12.201216,13.19727187,.00018184,87.9191,301.3615,96.0117,264.1223,0,U,54137,999,17922,.11829876E-3,.6E-6,0
ONEWEB-0520,2022-138AB,2026-07-05T07:49:16.024224,13.19726533,.00018773,87.9193,301.3547,108.8576,251.2760,0,U,54138,999,17921,.16887485E-3,.81E-6,0
ONEWEB-0521,2022-138AC,2026-07-05T06:47:50.334144,13.19726527,.0001835,87.9194,301.3519,94.1555,265.9788,0,U,54139,999,17915,.17755422E-3,.84E-6,0
ONEWEB-0522,2022-138AD,2026-07-05T08:07:27.891264,13.19726196,.00018693,87.9195,301.3437,104.4121,255.7219,0,U,54140,999,17920,.24410521E-3,.111E-5,0
